{"fetched_at":"2026-07-21T17:53:38.116Z","source":"https://celestrak.org/NORAD/elements/gp.php?NAME=LEGION&FORMAT=JSON","constellation":"maxar-legion","records":[{"OBJECT_NAME":"LEGION 1","OBJECT_ID":"2024-081A","EPOCH":"2026-07-21T04:51:06.316416","CLASSIFICATION_TYPE":"U","MEAN_MOTION":15.16869375,"ECCENTRICITY":0.00078677,"INCLINATION":97.5006,"RA_OF_ASC_NODE":279.6986,"ARG_OF_PERICENTER":244.794,"MEAN_ANOMALY":115.2478,"EPHEMERIS_TYPE":0,"NORAD_CAT_ID":59625,"ELEMENT_SET_NO":999,"REV_AT_EPOCH":12269,"BSTAR":0.00012357315,"MEAN_MOTION_DOT":0.00002366,"MEAN_MOTION_DDOT":0},{"OBJECT_NAME":"LEGION 2","OBJECT_ID":"2024-081B","EPOCH":"2026-07-21T05:34:59.206080","CLASSIFICATION_TYPE":"U","MEAN_MOTION":15.16848228,"ECCENTRICITY":0.00107022,"INCLINATION":97.5003,"RA_OF_ASC_NODE":279.8256,"ARG_OF_PERICENTER":210.3787,"MEAN_ANOMALY":149.6827,"EPHEMERIS_TYPE":0,"NORAD_CAT_ID":59626,"ELEMENT_SET_NO":999,"REV_AT_EPOCH":12270,"BSTAR":0.00014617015,"MEAN_MOTION_DOT":0.00002811,"MEAN_MOTION_DDOT":0},{"OBJECT_NAME":"LEGION 3","OBJECT_ID":"2024-146A","EPOCH":"2026-07-21T04:51:32.380704","CLASSIFICATION_TYPE":"U","MEAN_MOTION":15.15677275,"ECCENTRICITY":0.00076054,"INCLINATION":45.0013,"RA_OF_ASC_NODE":208.1884,"ARG_OF_PERICENTER":7.1906,"MEAN_ANOMALY":352.9081,"EPHEMERIS_TYPE":0,"NORAD_CAT_ID":60452,"ELEMENT_SET_NO":999,"REV_AT_EPOCH":10718,"BSTAR":0.00010745153,"MEAN_MOTION_DOT":0.00001816,"MEAN_MOTION_DDOT":0},{"OBJECT_NAME":"LEGION 4","OBJECT_ID":"2024-146B","EPOCH":"2026-07-21T06:25:53.967936","CLASSIFICATION_TYPE":"U","MEAN_MOTION":15.15708574,"ECCENTRICITY":0.00093841,"INCLINATION":45.0021,"RA_OF_ASC_NODE":299.7043,"ARG_OF_PERICENTER":151.0769,"MEAN_ANOMALY":209.0632,"EPHEMERIS_TYPE":0,"NORAD_CAT_ID":60453,"ELEMENT_SET_NO":999,"REV_AT_EPOCH":10604,"BSTAR":0.00016570916,"MEAN_MOTION_DOT":0.00002949,"MEAN_MOTION_DDOT":0},{"OBJECT_NAME":"LEGION 5","OBJECT_ID":"2025-025A","EPOCH":"2026-07-21T03:16:04.231776","CLASSIFICATION_TYPE":"U","MEAN_MOTION":15.15726515,"ECCENTRICITY":0.00077494,"INCLINATION":45.0013,"RA_OF_ASC_NODE":119.3685,"ARG_OF_PERICENTER":319.749,"MEAN_ANOMALY":40.2814,"EPHEMERIS_TYPE":0,"NORAD_CAT_ID":62900,"ELEMENT_SET_NO":999,"REV_AT_EPOCH":7964,"BSTAR":0.00013966844,"MEAN_MOTION_DOT":0.00002445,"MEAN_MOTION_DDOT":0},{"OBJECT_NAME":"LEGION 6","OBJECT_ID":"2025-025B","EPOCH":"2026-07-20T22:30:09.707040","CLASSIFICATION_TYPE":"U","MEAN_MOTION":15.15714741,"ECCENTRICITY":0.00106122,"INCLINATION":45.0022,"RA_OF_ASC_NODE":29.58,"ARG_OF_PERICENTER":305.7491,"MEAN_ANOMALY":54.24,"EPHEMERIS_TYPE":0,"NORAD_CAT_ID":62901,"ELEMENT_SET_NO":999,"REV_AT_EPOCH":8075,"BSTAR":0.00014353246,"MEAN_MOTION_DOT":0.0000252,"MEAN_MOTION_DDOT":0}]}
